{"type": "FeatureCollection", "features": [{"type": "Feature", "properties": {"norad_id": 50032, "name": "COSMOS 1408 DEB", "group": "cosmos-1408-debris", "lat": -8.821337935746577, "lon": -112.37961692936409, "alt_km": 427.4585138974244, "timestamp": "2025-12-04T23:34:05.993049+00:00", "meta": {"OBJECT_NAME": "COSMOS 1408 DEB", "OBJECT_ID": "1982-092RU", "EPOCH": "2025-12-04T16:32:15.185760", "MEAN_MOTION": 15.455691, "ECCENTRICITY": 0.0014735, "INCLINATION": 82.5654, "RA_OF_ASC_NODE": 66.7593, "ARG_OF_PERICENTER": 240.0734, "MEAN_ANOMALY": 119.9052, "EPHEMERIS_TYPE": 0, "CLASSIFICATION_TYPE": "U", "NORAD_CAT_ID": 50032, "ELEMENT_SET_NO": 999, "REV_AT_EPOCH": 22479, "BSTAR": 0.00021211, "MEAN_MOTION_DOT": 0.00010274, "MEAN_MOTION_DDOT": 0}, "tle": {"line1": "1 50032U 82092RU  25338.68906465  .00010274  00000+0  21211-3 0  9999", "line2": "2 50032  82.5654  66.7593 0014735 240.0734 119.9052 15.45569100224795"}}, "geometry": {"type": "Point", "coordinates": [-112.37961692936409, -8.821337935746577]}}, {"type": "Feature", "properties": {"norad_id": 50058, "name": "COSMOS 1408 DEB", "group": "cosmos-1408-debris", "lat": -64.57608170900323, "lon": -86.70644889014093, "alt_km": 390.3607204233631, "timestamp": "2025-12-04T23:34:05.993071+00:00", "meta": {"OBJECT_NAME": "COSMOS 1408 DEB", "OBJECT_ID": "1982-092SW", "EPOCH": "2025-12-04T07:09:39.474720", "MEAN_MOTION": 15.63350029, "ECCENTRICITY": 0.0016261, "INCLINATION": 82.6139, "RA_OF_ASC_NODE": 78.171, "ARG_OF_PERICENTER": 128.8171, "MEAN_ANOMALY": 231.4542, "EPHEMERIS_TYPE": 0, "CLASSIFICATION_TYPE": "U", "NORAD_CAT_ID": 50058, "ELEMENT_SET_NO": 999, "REV_AT_EPOCH": 22672, "BSTAR": 0.00063989, "MEAN_MOTION_DOT": 0.00059517, "MEAN_MOTION_DDOT": 0}, "tle": {"line1": "1 50058U 82092SW  25338.29837355  .00059517  00000+0  63989-3 0  9996", "line2": "2 50058  82.6139  78.1710 0016261 128.8171 231.4542 15.63350029226721"}}, "geometry": {"type": "Point", "coordinates": [-86.70644889014093, -64.57608170900323]}}, {"type": "Feature", "properties": {"norad_id": 50404, "name": "COSMOS 1408 DEB", "group": "cosmos-1408-debris", "lat": -26.67649862850652, "lon": -140.98013503592335, "alt_km": 569.5812323158025, "timestamp": "2025-12-04T23:34:05.993085+00:00", "meta": {"OBJECT_NAME": "COSMOS 1408 DEB", "OBJECT_ID": "1982-092ADS", "EPOCH": "2025-12-04T03:02:32.219520", "MEAN_MOTION": 15.11972911, "ECCENTRICITY": 0.01759389, "INCLINATION": 82.207, "RA_OF_ASC_NODE": 223.8385, "ARG_OF_PERICENTER": 228.6918, "MEAN_ANOMALY": 129.9057, "EPHEMERIS_TYPE": 0, "CLASSIFICATION_TYPE": "U", "NORAD_CAT_ID": 50404, "ELEMENT_SET_NO": 999, "REV_AT_EPOCH": 21063, "BSTAR": 0.0052613218, "MEAN_MOTION_DOT": 0.00133611, "MEAN_MOTION_DDOT": 0}, "tle": {"line1": "1 50404U 82092ADS 25338.12676180  .00133611  00000+0  52613-2 0  9999", "line2": "2 50404  82.2070 223.8385 0175938 228.6918 129.9057 15.11972911210636"}}, "geometry": {"type": "Point", "coordinates": [-140.98013503592335, -26.67649862850652]}}, {"type": "Feature", "properties": {"norad_id": 50621, "name": "COSMOS 1408 DEB", "group": "cosmos-1408-debris", "lat": 70.82880298712917, "lon": -119.79249180579791, "alt_km": 386.53203247250804, "timestamp": "2025-12-04T23:34:05.993096+00:00", "meta": {"OBJECT_NAME": "COSMOS 1408 DEB", "OBJECT_ID": "1982-092ALR", "EPOCH": "2025-12-04T07:40:18.152256", "MEAN_MOTION": 15.55994248, "ECCENTRICITY": 0.0028866, "INCLINATION": 82.5706, "RA_OF_ASC_NODE": 82.9412, "ARG_OF_PERICENTER": 183.2784, "MEAN_ANOMALY": 176.8286, "EPHEMERIS_TYPE": 0, "CLASSIFICATION_TYPE": "U", "NORAD_CAT_ID": 50621, "ELEMENT_SET_NO": 999, "REV_AT_EPOCH": 22119, "BSTAR": 0.00073704, "MEAN_MOTION_DOT": 0.00052478, "MEAN_MOTION_DDOT": 0}, "tle": {"line1": "1 50621U 82092ALR 25338.31965454  .00052478  00000+0  73704-3 0  9992", "line2": "2 50621  82.5706  82.9412 0028866 183.2784 176.8286 15.55994248221198"}}, "geometry": {"type": "Point", "coordinates": [-119.79249180579791, 70.82880298712917]}}]}